     2.100          NAVIGATION                              RINEX VERSION / TYPE
fic2rin                                 01/26/2014 00:18:55 PGM / RUN BY / DATE
                                                            END OF HEADER
28 14  1 25 11 59 44.0  .327356159687D-03  .295585778076D-11  .000000000000D+00
     .200000000000D+01 -.673437500000D+02  .392837791842D-08 -.298308586299D+00
    -.357255339622D-05  .192863143748D-01  .890344381332D-05  .515366642570D+04
     .561584000000D+06 -.227242708206D-06 -.147982114531D+01  .191852450371D-06
     .985407561015D+00  .225968750000D+03 -.173205581135D+01 -.817426906255D-08
     .106075847056D-09  .100000000000D+01  .177600000000D+04  .000000000000D+00
     .240000000000D+01  .000000000000D+00 -.107102096081D-07  .200000000000D+01
     .558726000000D+06  .400000000000D+01
27 14  1 25 11 59 44.0 -.161505304277D-04 -.170530256582D-11  .000000000000D+00
     .140000000000D+02 -.213750000000D+02  .457161899771D-08 -.107932979682D+01
    -.117346644402D-05  .658541335724D-03  .900961458683D-05  .515367133141D+04
     .561584000000D+06 -.186264514923D-07 -.496653629331D+00 -.130385160446D-07
     .962442288259D+00  .206906250000D+03  .125905462251D+00 -.803247744207D-08
     .379301513716D-09  .100000000000D+01  .177600000000D+04  .000000000000D+00
     .240000000000D+01  .000000000000D+00  .186264514923D-08  .140000000000D+02
     .559596000000D+06  .400000000000D+01
30 14  1 25 11 59 44.0 -.154802110046D-03  .795807864051D-12  .000000000000D+00
     .380000000000D+02 -.653750000000D+02  .527843415368D-08 -.160352792800D+00
    -.339187681675D-05  .652254512534D-02  .708736479282D-05  .515375682068D+04
     .561584000000D+06  .000000000000D+00 -.152755346462D+01  .745058059692D-07
     .979825955078D+00  .254593750000D+03  .842222986699D+00 -.802497712965D-08
     .175007289756D-10  .100000000000D+01  .177600000000D+04  .000000000000D+00
     .240000000000D+01  .630000000000D+02 -.190921127796D-07  .380000000000D+02
     .561486000000D+06  .400000000000D+01
27 14  1 25 13 59 44.0 -.161626376212D-04 -.170530256582D-11  .000000000000D+00
     .150000000000D+02 -.342812500000D+02  .446875757026D-08 -.272875534590D-01
    -.175274908543D-05  .659945886582D-03  .879168510437D-05  .515367481232D+04
     .568784000000D+06  .149011611938D-07 -.496711433614D+00 -.484287738800D-07
     .962445257982D+00  .212000000000D+03  .124044185727D+00 -.798640409436D-08
     .391087718945D-09  .100000000000D+01  .177600000000D+04  .000000000000D+00
     .240000000000D+01  .000000000000D+00  .186264514923D-08  .150000000000D+02
     .561606000000D+06  .400000000000D+01
28 14  1 25 13 59 44.0  .327377114445D-03  .295585778076D-11  .000000000000D+00
     .300000000000D+01 -.650937500000D+02  .397016537332D-08  .751897773869D+00
    -.349991023540D-05  .192844435805D-01  .816397368908D-05  .515366269302D+04
     .568784000000D+06 -.255182385445D-06 -.147987899641D+01 -.689178705215D-07
     .985407474702D+00  .239312500000D+03 -.173208038984D+01 -.816748306560D-08
    -.950039572962D-10  .100000000000D+01  .177600000000D+04  .000000000000D+00
     .240000000000D+01  .000000000000D+00 -.107102096081D-07  .300000000000D+01
     .561606000000D+06  .400000000000D+01
30 14  1 25 13 59 44.0 -.154796522111D-03  .795807864051D-12  .000000000000D+00
     .390000000000D+02 -.740312500000D+02  .528557730837D-08  .889811240758D+00
    -.387430191040D-05  .652134139091D-02  .686757266521D-05  .515375457191D+04
     .568784000000D+06 -.782310962677D-07 -.152761074079D+01  .111758708954D-07
     .979825915579D+00  .258437500000D+03  .842195331696D+00 -.799604735318D-08
    -.582167106740D-10  .100000000000D+01  .177600000000D+04  .000000000000D+00
     .240000000000D+01  .630000000000D+02 -.190921127796D-07  .390000000000D+02
     .561606000000D+06  .400000000000D+01
 1 14  1 25 14  0  0.0  .102741643786D-03  .238742359215D-11  .000000000000D+00
     .480000000000D+02 -.150312500000D+02  .491270463387D-08 -.231346579398D+01
    -.856816768646D-06  .267444178462D-02  .696815550327D-05  .515367817497D+04
     .568800000000D+06  .409781932831D-07  .556920082985D+00 -.124797224998D-06
     .960820846913D+00  .245187500000D+03  .400699787989D+00 -.818176937496D-08
     .660741808263D-10  .100000000000D+01  .177600000000D+04  .000000000000D+00
     .240000000000D+01  .000000000000D+00  .838190317154D-08  .480000000000D+02
     .561606000000D+06  .400000000000D+01
 2 14  1 25 14  0  0.0  .474804081023D-03  .216004991671D-11  .000000000000D+00
     .210000000000D+02 -.191250000000D+02  .540093925651D-08 -.158784796534D+01
    -.964850187302D-06  .130387364188D-01  .642053782940D-05  .515379190445D+04
     .568800000000D+06  .175088644028D-06  .529984279401D+00 -.106170773506D-06
     .939361010488D+00  .241156250000D+03 -.250615346801D+01 -.828070206734D-08
     .178936024832D-09  .100000000000D+01  .177600000000D+04  .000000000000D+00
     .240000000000D+01  .000000000000D+00 -.200234353542D-07  .210000000000D+02
     .561606000000D+06  .400000000000D+01
 3 14  1 25 14  0  0.0  .317116267979D-03  .500222085975D-11  .000000000000D+00
     .500000000000D+02 -.322500000000D+02  .499199365086D-08 -.138779353325D+01
    -.130757689476D-05  .167090960313D-01  .859610736370D-05  .515376666641D+04
     .568800000000D+06  .104308128357D-06 -.642696254033D+00  .372529029846D-06
     .937173427161D+00  .199625000000D+03  .136148186757D+01 -.829391690350D-08
     .353943314588D-09  .100000000000D+01  .177600000000D+04  .000000000000D+00
     .240000000000D+01  .000000000000D+00 -.465661287308D-08  .500000000000D+02
     .561606000000D+06  .400000000000D+01
 4 14  1 25 14  0  0.0  .507105141878D-05  .341060513165D-12  .000000000000D+00
     .670000000000D+02 -.232500000000D+02  .546165607133D-08  .179087360014D+01
    -.135228037834D-05  .106312505668D-01  .701099634171D-05  .515367427635D+04
     .568800000000D+06 -.203028321266D-06  .546122005225D+00 -.206753611565D-06
     .938371470755D+00  .235500000000D+03  .107509873345D+01 -.838820654533D-08
     .325013538118D-10  .100000000000D+01  .177600000000D+04  .000000000000D+00
     .240000000000D+01  .000000000000D+00 -.605359673500D-08  .670000000000D+02
     .561606000000D+06  .400000000000D+01
 5 14  1 25 14  0  0.0 -.391118228436D-03  .136424205266D-11  .000000000000D+00
     .940000000000D+02  .197500000000D+02  .489770400903D-08  .651330010326D+00
     .116787850857D-05  .354123406578D-02  .978447496891D-05  .515378412437D+04
     .568800000000D+06  .409781932831D-07  .159693351609D+01 -.558793544769D-08
     .947277013821D+00  .179875000000D+03  .370837134444D+00 -.814641075928D-08
    -.450375902821D-09  .100000000000D+01  .177600000000D+04  .000000000000D+00
     .240000000000D+01  .000000000000D+00 -.102445483208D-07  .940000000000D+02
     .561606000000D+06  .400000000000D+01
 6 14  1 25 14  0  0.0  .249821227044D-03  .150066625793D-10  .000000000000D+00
     .240000000000D+02 -.356250000000D+02  .493163399378D-08  .473344124637D+00
    -.187195837498D-05  .847259536386D-02  .850670039654D-05  .515368615341D+04
     .568800000000D+06  .182539224625D-06 -.561427653967D+00 -.614672899246D-07
     .943717444477D+00  .207375000000D+03 -.185037172775D+00 -.828784522202D-08
     .367158150754D-09  .100000000000D+01  .177600000000D+04  .000000000000D+00
     .240000000000D+01  .000000000000D+00 -.512227416039D-08  .240000000000D+02
     .561606000000D+06  .400000000000D+01
 7 14  1 25 14  0  0.0  .306609552354D-03  .420641299570D-11  .000000000000D+00
     .280000000000D+02  .831250000000D+01  .424017662038D-08 -.288865559231D+01
     .409781932831D-06  .699648668524D-02  .361911952496D-05  .515365311623D+04
     .568800000000D+06 -.577419996262D-07 -.256592775799D+01 -.819563865662D-07
     .974461204803D+00  .317781250000D+03 -.283348823471D+01 -.806676458455D-08
    -.296440919383D-10  .100000000000D+01  .177600000000D+04  .000000000000D+00
     .240000000000D+01  .000000000000D+00 -.107102096081D-07  .280000000000D+02
     .561606000000D+06  .400000000000D+01
 8 14  1 25 14  0  0.0  .115428119898D-04  .227373675443D-12  .000000000000D+00
     .690000000000D+02 -.656250000000D+01  .372944106048D-08  .281535785500D+01
    -.447034835815D-06  .134431096958D-01  .417791306973D-05  .515364604759D+04
     .568800000000D+06 -.165775418282D-06 -.246927548884D+01 -.139698386192D-06
     .997507328653D+00  .318750000000D+03 -.279399703472D+01 -.774210820417D-08
    -.785747015231D-10  .100000000000D+01  .177600000000D+04  .000000000000D+00
     .340000000000D+01  .000000000000D+00 -.419095158577D-08  .690000000000D+02
     .561606000000D+06  .400000000000D+01
 9 14  1 25 14  0  0.0  .300630461425D-03  .284217094304D-11  .000000000000D+00
     .270000000000D+02  .129687500000D+02  .413124351145D-08 -.174802472082D+01
     .103190541267D-05  .168847779278D-01  .378675758839D-05  .515369342995D+04
     .568800000000D+06 -.242143869400D-07 -.258727533593D+01  .372529029846D-06
     .983033326895D+00  .318187500000D+03  .176305561453D+01 -.806426448041D-08
    -.675028117631D-10  .100000000000D+01  .177600000000D+04  .000000000000D+00
     .240000000000D+01  .000000000000D+00 -.605359673500D-08  .270000000000D+02
     .561606000000D+06  .400000000000D+01
10 14  1 25 14  0  0.0 -.111509114504D-03 -.159161572810D-11  .000000000000D+00
     .280000000000D+02  .196875000000D+02  .512842790532D-08  .100952088653D+01
     .127218663692D-05  .134189771488D-01  .971369445324D-05  .515369665337D+04
     .568800000000D+06 -.987201929092D-07  .161492083557D+01  .137835741043D-06
     .942082121502D+00  .185625000000D+03  .851526276710D+00 -.837499170916D-08
    -.491806199988D-09  .100000000000D+01  .177600000000D+04  .000000000000D+00
     .240000000000D+01  .000000000000D+00 -.279396772385D-08  .280000000000D+02
     .561606000000D+06  .400000000000D+01
